     3.02           N: GNSS NAV DATA    C: BEIDOU           RINEX VERSION / TYPE
GR25 V3.11          IGN                 20160130 235943 UTC PGM / RUN BY / DATE
BDSA   1.3970D-08  2.4587D-07 -2.5630D-06  5.5432D-06       IONOSPHERIC CORR
BDSB   1.1674D+05  2.9491D+05 -6.0948D+06  8.3231D+06       IONOSPHERIC CORR
BDUT -9.3132257462D-09-2.042810365D-14 597894  525          TIME SYSTEM CORR
     3     3   495     2                                    LEAP SECONDS
                                                            END OF HEADER
C11 2016 01 31 19 00 00 3.076520515606D-04-3.161915174132D-12-1.219727444046D-19
     8.000000000000D+00-5.500000000000D+00 3.528718413857D-09 1.285536191491D+00
    -2.281740307808D-07 2.347848028876D-03 7.376540452242D-06 5.282612545013D+03
     6.840000000000D+04-5.820766091347D-08-1.022920904533D+00-3.213062882423D-08
     9.756785252697D-01 2.215937500000D+02-2.571525697407D+00-6.726708765849D-09
     1.878649681871D-10                    5.260000000000D+02                   
     2.000000000000D+00 0.000000000000D+00 8.100000000000D-09 2.500000000000D-09
     6.840000000000D+04 7.000000000000D+00                                      
C14 2016 01 31 19 00 00 8.050155593082D-04 1.207904887224D-10 1.856696220381D-18
     1.300000000000D+01-5.484375000000D+00 3.951593171145D-09-7.764779779845D-01
    -2.565793693066D-07 1.700308290310D-03 9.196810424328D-06 5.282611940384D+03
     6.840000000000D+04-2.328306436539D-09 1.057650272522D+00 6.472691893578D-08
     9.569155973413D-01 1.737343750000D+02-2.569595929985D+00-6.775996533168D-09
    -8.214627886510D-11                    5.260000000000D+02                   
     2.000000000000D+00 0.000000000000D+00 1.170000000000D-08 2.500000000000D-09
     6.840000000000D+04 1.200000000000D+01                                      
C12 2016 01 31 19 00 00 3.907345235348D-04 1.332534083076D-11 1.626303258728D-19
     1.900000000000D+01-1.634375000000D+01 3.530147044794D-09 2.214089174913D+00
    -8.069910109043D-07 2.597496961243D-03 7.098075002432D-06 5.282609155655D+03
     6.840000000000D+04-3.911554813385D-08-1.032339421286D+00-4.470348358154D-08
     9.745668216371D-01 2.250156250000D+02-2.677562340270D+00-6.732066131862D-09
     2.432244169875D-10                    5.260000000000D+02                   
     2.000000000000D+00 0.000000000000D+00 8.300000000000D-09 6.000000000000D-10
     6.840000000000D+04 1.800000000000D+01                                      
C11 2016 01 31 20 00 00 3.076406428590D-04-3.162803352552D-12-1.219727444046D-19
     9.000000000000D+00-1.640625000000D+01 3.510503369413D-09 1.772475872152D+00
    -8.367933332920D-07 2.347572008148D-03 7.412396371365D-06 5.282615488052D+03
     7.200000000000D+04-3.539025783539D-08-1.022945058773D+00-2.887099981308D-08
     9.756791543245D-01 2.209375000000D+02-2.570896066243D+00-6.735280551470D-09
     1.753644474903D-10                    5.260000000000D+02                   
     2.000000000000D+00 0.000000000000D+00 8.100000000000D-09 2.500000000000D-09
     7.200000000000D+04 8.000000000000D+00                                      
C14 2016 01 31 20 00 00 8.054503705353D-04 1.208046995771D-10 1.856696220381D-18
     1.400000000000D+01-6.093750000000D+00 3.967308111450D-09-2.888812086505D-01
    -2.952292561531D-07 1.700286171399D-03 9.202398359776D-06 5.282611913681D+03
     7.200000000000D+04-3.492459654808D-08 1.057625800828D+00 3.585591912270D-08
     9.569151233559D-01 1.740937500000D+02-2.569621646622D+00-6.813498095259D-09
    -7.428880871279D-11                    5.260000000000D+02                   
     2.000000000000D+00 0.000000000000D+00 1.170000000000D-08 2.500000000000D-09
     7.200000000000D+04 1.300000000000D+01                                      
C12 2016 01 31 20 00 00 3.907824866474D-04 1.332711718760D-11 1.626303258728D-19
     2.000000000000D+01-1.701562500000D+01 3.522289574642D-09 2.701722537680D+00
    -8.381903171539D-07 2.597928163595D-03 7.251743227243D-06 5.282608259201D+03
     7.200000000000D+04 6.053596735001D-09-1.032363650136D+00-4.423782229424D-08
     9.745678968819D-01 2.216406250000D+02-2.677625424224D+00-6.692778781100D-09
     2.435815747217D-10                    5.260000000000D+02                   
     2.000000000000D+00 0.000000000000D+00 8.300000000000D-09 6.000000000000D-10
     7.200000000000D+04 1.900000000000D+01                                      
C11 2016 01 31 21 00 00 3.076292341575D-04-3.163691530972D-12-1.219727444046D-19
     1.000000000000D+01-1.989062500000D+01 3.503360214729D-09 2.259807998142D+00
    -1.067761331797D-06 2.347190282308D-03 7.161870598793D-06 5.282616798401D+03
     7.560000000000D+04-1.583248376846D-08-1.022969357843D+00-4.842877388000D-08
     9.756798945610D-01 2.243593750000D+02-2.570659733291D+00-6.712422456481D-09
     1.807218135032D-10                    5.260000000000D+02                   
     2.000000000000D+00 0.000000000000D+00 8.100000000000D-09 2.500000000000D-09
     7.560000000000D+04 9.000000000000D+00                                      
C14 2016 01 31 21 00 00 8.058852981776D-04 1.208180222534D-10 1.856696220381D-18
     1.500000000000D+01-1.210937500000D+01 3.991951995110D-09 1.987773821387D-01
    -6.030313670635D-07 1.699475804344D-03 9.223818778992D-06 5.282610311508D+03
     7.560000000000D+04-3.026798367500D-08 1.057601216490D+00 2.235174179077D-08
     9.569148219947D-01 1.736718750000D+02-2.569709050125D+00-6.823141354082D-09
    -6.857428496565D-11                    5.260000000000D+02                   
     2.000000000000D+00 0.000000000000D+00 1.170000000000D-08 2.500000000000D-09
     7.560000000000D+04 1.400000000000D+01                                      
C12 2016 01 31 21 00 00 3.908304497600D-04 1.332800536602D-11 1.626303258728D-19
     2.100000000000D+01-2.289062500000D+01 3.534432937604D-09-3.093900450424D+00
    -1.139938831329D-06 2.598898834549D-03 7.458496838808D-06 5.282606378555D+03
     7.560000000000D+04 1.071020960808D-08-1.032387678565D+00-2.281740307808D-08
     9.745688492415D-01 2.175937500000D+02-2.677617199698D+00-6.675278052125D-09
     2.364384200378D-10                    5.260000000000D+02                   
     2.000000000000D+00 0.000000000000D+00 8.300000000000D-09 6.000000000000D-10
     7.560000000000D+04 2.000000000000D+01                                      
C11 2016 01 31 22 00 00 3.076179418713D-04-3.164579709392D-12-1.219727444046D-19
     1.100000000000D+01-2.182812500000D+01 3.530504202528D-09 2.747470649992D+00
    -1.130625605583D-06 2.347782370634D-03 7.282942533493D-06 5.282615577698D+03
     7.920000000000D+04 8.381903171539D-09-1.022993493065D+00-3.911554813385D-08
     9.756806552784D-01 2.200156250000D+02-2.570754310944D+00-6.689921519227D-09
     1.785788670980D-10                    5.260000000000D+02                   
     2.000000000000D+00 0.000000000000D+00 8.100000000000D-09 2.500000000000D-09
     7.920000000000D+04 1.000000000000D+01                                      
C12 2016 01 31 22 00 00 3.908784128726D-04 1.332889354444D-11 1.626303258728D-19
     2.200000000000D+01-2.351562500000D+01 3.528718413857D-09-2.606327542747D+00
    -1.208856701851D-06 2.598971943371D-03 7.459428161383D-06 5.282606260300D+03
     7.920000000000D+04 1.862645149231D-08-1.032411740642D+00-2.235174179077D-08
     9.745696874936D-01 2.172031250000D+02-2.677618921553D+00-6.678849629467D-09
     2.414386283166D-10                    5.260000000000D+02                   
     2.000000000000D+00 0.000000000000D+00 8.300000000000D-09 6.000000000000D-10
     7.920000000000D+04 2.100000000000D+01                                      
C14 2016 01 31 22 00 00 8.063202258199D-04 1.208313449297D-10 1.856696220381D-18
     1.600000000000D+01-1.223437500000D+01 3.972308319729D-09 6.862989472430D-01
    -6.412155926228D-07 1.699513872154D-03 9.217765182257D-06 5.282610467911D+03
     7.920000000000D+04-5.075708031654D-08 1.057576760889D+00 6.984919309616D-09
     9.569145952424D-01 1.727968750000D+02-2.569658948107D+00-6.816355357132D-09
    -8.678932940965D-11                    5.260000000000D+02                   
     2.000000000000D+00 0.000000000000D+00 1.170000000000D-08 2.500000000000D-09
     7.923000000000D+04 1.500000000000D+01                                      
C11 2016 01 31 23 00 00 3.076065331697D-04-3.165467887811D-12-1.219727444046D-19
     1.200000000000D+01-2.670312500000D+01 3.564077029543D-09-3.048158909539D+00
    -1.320615410805D-06 2.348478534259D-03 7.351860404015D-06 5.282614236832D+03
     8.280000000000D+04 1.676380634308D-08-1.023017600492D+00-4.423782229424D-08
     9.756812784815D-01 2.182500000000D+02-2.570741446043D+00-6.694207412037D-09
     1.828647599084D-10                    5.260000000000D+02                   
     2.000000000000D+00 0.000000000000D+00 8.100000000000D-09 2.500000000000D-09
     8.280000000000D+04 1.100000000000D+01                                      
